NORAD_CAT_ID,OBJECT_NAME,OBJECT_TYPE,EPOCH,MEAN_MOTION,ECCENTRICITY,INCLINATION,RA_OF_ASC_NODE,ARG_OF_PERICENTER,MEAN_ANOMALY,BSTAR,MEAN_MOTION_DOT,MEAN_MOTION_DDOT,TLE_LINE0,TLE_LINE1,TLE_LINE2,SEMIMAJOR_AXIS,PERIOD,APOGEE,PERIGEE,DECAYED
55787.0,STARLINK-5811,PAYLOAD,2023-08-11 16:46:36,15.69926793,0.0003667,69.9968,62.6971,266.5854,93.4922,-2.3506e-06,-4.96e-06,0.0,0 STARLINK-5811,1 55787U 23028AY  23223.69902957 -.00000496  00000-0 -23506-5 0  9998,2 55787  69.9968  62.6971 0003667 266.5854  93.4922 15.69926793 25924,6737.243,91.724,361.579,356.638,0.0
55787.0,STARLINK-5811,PAYLOAD,2023-08-11 22:53:45,15.69806775,0.0003344,69.9969,61.9821,274.426,85.6554,-0.00013371,-0.00016181,0.0,0 STARLINK-5811,1 55787U 23028AY  23223.95399968 -.00016181  00000-0 -13371-3 0  9994,2 55787  69.9969  61.9821 0003344 274.4260  85.6554 15.69806775 25967,6737.587,91.731,361.705,357.199,0.0
55787.0,STARLINK-5811,PAYLOAD,2023-08-12 03:29:16,15.69613927,0.0004394,69.9966,61.4448,267.1733,92.8959,-0.00034184,-0.00040607,0.0,0 STARLINK-5811,1 55787U 23028AY  23224.14532552 -.00040607  00000-0 -34184-3 0  9999,2 55787  69.9966  61.4448 0004394 267.1733  92.8959 15.69613927 25991,6738.139,91.742,362.964,357.043,0.0
55787.0,STARLINK-5811,PAYLOAD,2023-08-12 18:49:27,15.67700846,0.0003663,69.9988,59.6652,185.6636,174.4518,-0.0024872,-0.00264771,0.0,0 STARLINK-5811,1 55787U 23028AY  23224.78434247 -.00264771  00000-0 -24872-2 0  9993,2 55787  69.9988  59.6652 0003663 185.6636 174.4518 15.67700846 26090,6743.619,91.854,367.955,363.014,0.0
55787.0,STARLINK-5811,PAYLOAD,2023-08-13 06:00:00,15.67045566,0.0003415,69.9994,58.3462,271.9653,203.613,-0.0092582,-0.00903356,0.0,0 STARLINK-5811,1 55787U 23028AY  23225.25001157 -.00903356  00000-0 -92582-2 0  9998,2 55787  69.9994  58.3462 0003415 271.9653 203.6130 15.67045566 26169,6745.499,91.893,369.668,365.061,0.0
55787.0,STARLINK-5811,PAYLOAD,2023-08-14 06:00:02,15.65098434,0.0003461,69.9993,55.5503,272.2328,79.5698,-0.010245,-0.00922346,0.0,0 STARLINK-5811,1 55787U 23028AY  23226.25002315 -.00922346  00000-0 -10245-1 0  9991,2 55787  69.9993  55.5503 0003461 272.2328  79.5698 15.65098434 26324,6751.093,92.007,375.294,370.621,0.0
55787.0,STARLINK-5811,PAYLOAD,2023-08-15 14:00:01,15.62508944,0.0003578,69.9998,51.8355,270.3726,25.2774,-0.01141,-0.00926796,0.0,0 STARLINK-5811,1 55787U 23028AY  23227.58334491 -.00926796  00000-0 -11410-1 0  9999,2 55787  69.9998  51.8355 0003578 270.3726  25.2774 15.62508944 26538,6758.55,92.159,382.833,377.996,0.0
55787.0,STARLINK-5811,PAYLOAD,2023-08-15 18:00:00,15.62171005,0.0003497,69.9996,51.3721,276.1106,236.6627,-0.011546,-0.00925617,0.0,0 STARLINK-5811,1 55787U 23028AY  23227.75001157 -.00925617  00000-0 -11546-1 0  9999,2 55787  69.9996  51.3721 0003497 276.1106 236.6627 15.62171005 26555,6759.524,92.179,383.753,379.025,0.0
55787.0,STARLINK-5811,PAYLOAD,2023-08-16 22:00:00,15.59861327,0.0003379,69.9995,48.1345,278.1271,308.9538,-0.011856,-0.00873969,0.0,0 STARLINK-5811,1 55787U 23028AY  23228.91667824 -.00873969  00000-0 -11856-1 0  9993,2 55787  69.9995  48.1345 0003379 278.1271 308.9538 15.59861327 26737,6766.195,92.316,390.346,385.774,0.0
55787.0,STARLINK-5811,PAYLOAD,2023-08-17 14:00:01,15.58606567,0.0003651,69.9998,46.29,273.4872,94.5841,-0.01359,-0.00947664,0.0,0 STARLINK-5811,1 55787U 23028AY  23229.58334491 -.00947664  00000-0 -13590-1 0  9999,2 55787  69.9998  46.2900 0003651 273.4872  94.5841 15.58606567 26843,6769.826,92.39,394.163,389.219,0.0
55787.0,STARLINK-5811,PAYLOAD,2023-08-18 14:00:01,15.5664305,0.0003497,70.0,43.5292,272.8002,300.9241,-0.014448,-0.00936737,0.0,0 STARLINK-5811,1 55787U 23028AY  23230.58334491 -.00936737  00000-0 -14448-1 0  9993,2 55787  70.0000  43.5292 0003497 272.8002 300.9241 15.56643050 26990,6775.518,92.507,399.752,395.013,0.0
55787.0,STARLINK-5811,PAYLOAD,2023-08-19 14:00:01,15.54689139,0.0003623,70.0,40.7769,276.3497,136.0501,-0.015712,-0.00946539,0.0,0 STARLINK-5811,1 55787U 23028AY  23231.58335648 -.00946539  00000-0 -15712-1 0  9995,2 55787  70.0000  40.7769 0003623 276.3497 136.0501 15.54689139 27158,6781.193,92.623,405.515,400.602,0.0
55787.0,STARLINK-5811,PAYLOAD,2023-08-20 04:00:00,15.5352619,0.0003504,70.0,39.1751,279.4429,155.51,-0.01606,-0.00928877,0.0,0 STARLINK-5811,1 55787U 23028AY  23232.16667824 -.00928877  00000-0 -16060-1 0  9996,2 55787  70.0000  39.1751 0003504 279.4429 155.5100 15.53526190 27245,6784.577,92.692,408.82,404.065,0.0
55787.0,STARLINK-5811,PAYLOAD,2023-08-20 22:00:00,15.52018981,0.0003532,70.0003,37.1197,277.6459,28.5726,-0.015129,-0.00836795,0.0,0 STARLINK-5811,1 55787U 23028AY  23232.91667824 -.00836795  00000-0 -15129-1 0  9991,2 55787  70.0003  37.1197 0003532 277.6459  28.5726 15.52018981 27363,6788.969,92.782,413.232,408.436,0.0
55787.0,STARLINK-5811,PAYLOAD,2023-08-21 04:00:00,15.51389993,0.0003378,70.0002,36.4356,275.4258,347.0169,-0.0047762,-0.00272894,0.0,0 STARLINK-5811,1 55787U 23028AY  23233.16667824 -.00272894  00000-0 -47762-2 0  9992,2 55787  70.0002  36.4356 0003378 275.4258 347.0169 15.51389993 27400,6790.804,92.82,414.963,410.375,0.0
55787.0,STARLINK-5811,PAYLOAD,2023-08-21 12:00:00,15.51237394,0.0003526,70.0006,35.5241,270.579,52.8429,-0.00012616,-7.572e-05,0.0,0 STARLINK-5811,1 55787U 23028AY  23233.50001157 -.00007572  00000-0 -12616-3 0  9991,2 55787  70.0006  35.5241 0003526 270.5790  52.8429 15.51237394 27451,6791.249,92.829,415.509,410.72,0.0
55787.0,STARLINK-5811,PAYLOAD,2023-08-22 14:00:01,15.5122963,0.0003648,70.0006,32.5626,269.4809,341.9139,-0.017661,-0.00952364,0.0,0 STARLINK-5811,1 55787U 23028AY  23234.58334491 -.00952364  00000-0 -17661-1 0  9991,2 55787  70.0006  32.5626 0003648 269.4809 341.9139 15.51229630 27621,6791.272,92.83,415.614,410.659,0.0
55787.0,STARLINK-5811,PAYLOAD,2023-08-23 12:00:00,15.49433351,0.0003536,70.0008,30.0598,269.5014,56.3768,-0.01844,-0.00934321,0.0,0 STARLINK-5811,1 55787U 23028AY  23235.50001157 -.00934321  00000-0 -18440-1 0  9993,2 55787  70.0008  30.0598 0003536 269.5014  56.3768 15.49433351 27763,6796.52,92.937,420.788,415.981,0.0
55787.0,STARLINK-5811,PAYLOAD,2023-08-24 22:00:00,15.46643708,0.0003436,70.0001,26.2048,275.569,22.8918,-0.019889,-0.00915585,0.0,0 STARLINK-5811,1 55787U 23028AY  23236.91667824 -.00915585  00000-0 -19889-1 0  9997,2 55787  70.0001  26.2048 0003436 275.5690  22.8918 15.46643708  5913,6804.69,93.105,428.893,424.217,0.0
55787.0,STARLINK-5811,PAYLOAD,2023-08-25 04:00:00,15.46139849,0.0003291,70.0002,25.5263,272.1194,337.6895,-0.020109,-0.00910144,0.0,0 STARLINK-5811,1 55787U 23028AY  23237.16667824 -.00910144  00000-0 -20109-1 0  9998,2 55787  70.0002  25.5263 0003291 272.1194 337.6895 15.46139849 28020,6806.168,93.135,430.273,425.793,0.0
55787.0,STARLINK-5811,PAYLOAD,2023-08-25 14:00:01,15.45362375,0.0003543,70.0001,24.3967,274.9179,132.7972,-0.021837,-0.00958058,0.0,0 STARLINK-5811,1 55787U 23028AY  23237.58334491 -.00958058  00000-0 -21837-1 0  9990,2 55787  70.0001  24.3967 0003543 274.9179 132.7972 15.45362375  6016,6808.451,93.182,432.728,427.903,0.0
55787.0,STARLINK-5811,PAYLOAD,2023-08-26 00:00:02,15.44549612,0.0003344,69.9996,23.268,277.1371,287.3429,-0.022726,-0.00968675,0.0,0 STARLINK-5811,1 55787U 23028AY  23238.00002315 -.00968675  00000-0 -22726-1 0  9999,2 55787  69.9996  23.2680 0003344 277.1371 287.3429 15.44549612  5994,6810.839,93.231,434.981,430.426,0.0
55787.0,STARLINK-5811,PAYLOAD,2023-08-26 06:00:00,15.43991857,0.0003361,69.9998,22.5917,273.255,240.6122,-0.020085,-0.00838584,0.0,0 STARLINK-5811,1 55787U 23028AY  23238.25001157 -.00838584  00000-0 -20085-1 0  9990,2 55787  69.9998  22.5917 0003361 273.2550 240.6122 15.43991857 28185,6812.479,93.265,436.634,432.054,0.0
55787.0,STARLINK-5811,PAYLOAD,2023-08-26 14:00:01,15.43398948,0.0003426,70.0002,21.6905,274.6901,291.0538,-0.023106,-0.00948864,0.0,0 STARLINK-5811,1 55787U 23028AY  23238.58334491 -.00948864  00000-0 -23106-1 0  9996,2 55787  70.0002  21.6905 0003426 274.6901 291.0538 15.43398948  5984,6814.224,93.301,438.423,433.754,0.0
55787.0,STARLINK-5811,PAYLOAD,2023-08-26 22:00:00,15.42731949,0.0003523,69.9995,20.7901,277.4006,339.4568,-0.022878,-0.00920995,0.0,0 STARLINK-5811,1 55787U 23028AY  23238.91667824 -.00920995  00000-0 -22878-1 0  9992,2 55787  69.9995  20.7901 0003523 277.4006 339.4568 15.42731949 28293,6816.187,93.341,440.454,435.651,0.0
55787.0,STARLINK-5811,PAYLOAD,2023-08-27 14:00:01,15.41442045,0.0003569,70.0002,18.9921,275.0431,81.6856,-0.024674,-0.00948755,0.0,0 STARLINK-5811,1 55787U 23028AY  23239.58334491 -.00948755  00000-0 -24674-1 0  9997,2 55787  70.0002  18.9921 0003569 275.0431  81.6856 15.41442045  5771,6819.99,93.419,444.289,439.42,0.0
55787.0,STARLINK-5811,PAYLOAD,2023-08-27 22:00:00,15.40778001,0.0003578,69.9998,18.0945,280.1793,125.3154,-0.024506,-0.00923831,0.0,0 STARLINK-5811,1 55787U 23028AY  23239.91667824 -.00923831  00000-0 -24506-1 0  9995,2 55787  69.9998  18.0945 0003578 280.1793 125.3154 15.40778001 28446,6821.949,93.459,446.255,441.373,0.0
55787.0,STARLINK-5811,PAYLOAD,2023-08-28 22:00:00,15.3882958,0.0003353,69.9999,15.4073,280.0242,267.0649,-0.026604,-0.00938976,0.0,0 STARLINK-5811,1 55787U 23028AY  23240.91667824 -.00938976  00000-0 -26604-1 0  9994,2 55787  69.9999  15.4073 0003353 280.0242 267.0649 15.38829580 28594,6827.706,93.578,451.861,447.282,0.0
55787.0,STARLINK-5811,PAYLOAD,2023-08-29 22:00:00,15.36873221,0.0003527,70.0001,12.7283,279.6982,41.9482,-0.028428,-0.00941174,0.0,0 STARLINK-5811,1 55787U 23028AY  23241.91667824 -.00941174  00000-0 -28428-1 0  9995,2 55787  70.0001  12.7283 0003527 279.6982  41.9482 15.36873221  6018,6833.499,93.697,457.774,452.954,0.0
55787.0,STARLINK-5811,PAYLOAD,2023-08-30 04:00:00,15.3633903,0.0003374,70.0006,12.0598,274.4674,349.7327,-0.026644,-0.00872628,0.0,0 STARLINK-5811,1 55787U 23028AY  23242.16667824 -.00872628  00000-0 -26644-1 0  9998,2 55787  70.0006  12.0598 0003374 274.4674 349.7327 15.36339030 28797,6835.083,93.729,459.254,454.642,0.0
